[{"OBJECT_NAME":"GNOMES-1","OBJECT_ID":"2020-059B","EPOCH":"2026-03-09T12:56:23.998560","MEAN_MOTION":14.99848479,"ECCENTRICITY":0.00054513,"INCLINATION":97.8057,"RA_OF_ASC_NODE":278.776,"ARG_OF_PERICENTER":357.8604,"MEAN_ANOMALY":2.2595,"EPHEMERIS_TYPE":0,"CLASSIFICATION_TYPE":"U","NORAD_CAT_ID":46266,"ELEMENT_SET_NO":999,"REV_AT_EPOCH":30065,"BSTAR":0.00033421547,"MEAN_MOTION_DOT":4.08e-5,"MEAN_MOTION_DDOT":0},{"OBJECT_NAME":"STARLINK-34384","OBJECT_ID":"2025-123X","EPOCH":"2026-03-09T17:36:28.841760","MEAN_MOTION":14.98332102,"ECCENTRICITY":0.00039959,"INCLINATION":70.0026,"RA_OF_ASC_NODE":194.4036,"ARG_OF_PERICENTER":269.0225,"MEAN_ANOMALY":91.0476,"EPHEMERIS_TYPE":0,"CLASSIFICATION_TYPE":"U","NORAD_CAT_ID":64312,"ELEMENT_SET_NO":999,"REV_AT_EPOCH":4162,"BSTAR":0.00051922228,"MEAN_MOTION_DOT":6.108e-5,"MEAN_MOTION_DDOT":0}]
